start=new Date('2023-01-17T00:00:00.000Z').valueOf();
sats=[{"PERIAPSIS":"560.961","OBJECT_ID":"2022-077AP","OBJECT_NAME":"STARLINK-4330","EPOCH":"2023-01-16T20:08:08.345472","MEAN_ANOMALY":"354.2928","CLASSIFICATION_TYPE":"U","REV_AT_EPOCH":"2870","ECCENTRICITY":"0.00029500","TIME_SYSTEM":"UTC","DECAY_DATE":null,"OBJECT_TYPE":"PAYLOAD","BSTAR":"0.00009900300000","TLE_LINE1":"1 53080U 22077AP  23016.83898548  .00001213  00000-0  99003-4 0  9991","MEAN_MOTION_DOT":"0.00001213","ELEMENT_SET_NO":"999","COUNTRY_CODE":"US","GP_ID":"223254423","FILE":"3750956","LAUNCH_DATE":"2022-07-11","APOAPSIS":"565.057","SEMIMAJOR_AXIS":"6941.144","RA_OF_ASC_NODE":"200.1027","MEAN_ELEMENT_THEORY":"SGP4","PERIOD":"95.919","MEAN_MOTION_DDOT":"0.0000000000000","TLE_LINE2":"2 53080  97.6516 200.1027 0002950   5.8330 354.2928 15.01260967 28706","ARG_OF_PERICENTER":"5.8330","INCLINATION":"97.6516","CENTER_NAME":"EARTH","REF_FRAME":"TEME","EPHEMERIS_TYPE":"0","SITE":"AFWTR","RCS_SIZE":"LARGE","MEAN_MOTION":"15.01260967","NORAD_CAT_ID":"53080"},{"OBJECT_TYPE":"PAYLOAD","DECAY_DATE":null,"TIME_SYSTEM":"UTC","BSTAR":"0.00003972800000","ELEMENT_SET_NO":"999","MEAN_MOTION_DOT":"0.00000451","TLE_LINE1":"1 53081U 22077AQ  23016.76517676  .00000451  00000-0  39728-4 0  9995","OBJECT_ID":"2022-077AQ","PERIAPSIS":"561.207","EPOCH":"2023-01-16T18:21:51.272064","MEAN_ANOMALY":"337.6178","OBJECT_NAME":"STARLINK-4326","CLASSIFICATION_TYPE":"U","ECCENTRICITY":"0.00026090","REV_AT_EPOCH":"2869","REF_FRAME":"TEME","CENTER_NAME":"EARTH","EPHEMERIS_TYPE":"0","RCS_SIZE":"LARGE","SITE":"AFWTR","NORAD_CAT_ID":"53081","MEAN_MOTION":"15.01257933","LAUNCH_DATE":"2022-07-11","GP_ID":"223254665","FILE":"3750956","COUNTRY_CODE":"US","SEMIMAJOR_AXIS":"6941.153","APOAPSIS":"564.829","PERIOD":"95.920","MEAN_ELEMENT_THEORY":"SGP4","RA_OF_ASC_NODE":"200.0198","MEAN_MOTION_DDOT":"0.0000000000000","TLE_LINE2":"2 53081  97.6504 200.0198 0002609  22.5160 337.6178 15.01257933 28699","INCLINATION":"97.6504","ARG_OF_PERICENTER":"22.5160"},{"ELEMENT_SET_NO":"999","MEAN_MOTION_DOT":"-0.00000309","TLE_LINE1":"1 53082U 22077AR  23016.83343091 -.00000309  00000-0 -19467-4 0  9994","TIME_SYSTEM":"UTC","OBJECT_TYPE":"PAYLOAD","DECAY_DATE":null,"BSTAR":"-0.00001946700000","CLASSIFICATION_TYPE":"U","ECCENTRICITY":"0.00030180","REV_AT_EPOCH":"2870","PERIAPSIS":"560.919","OBJECT_ID":"2022-077AR","EPOCH":"2023-01-16T20:00:08.430624","MEAN_ANOMALY":"354.6733","OBJECT_NAME":"STARLINK-4321","SITE":"AFWTR","RCS_SIZE":"LARGE","MEAN_MOTION":"15.01259366","NORAD_CAT_ID":"53082","REF_FRAME":"TEME","CENTER_NAME":"EARTH","EPHEMERIS_TYPE":"0","MEAN_ELEMENT_THEORY":"SGP4","RA_OF_ASC_NODE":"200.0925","PERIOD":"95.919","TLE_LINE2":"2 53082  97.6532 200.0925 0003018   5.4523 354.6733 15.01259366 28707","INCLINATION":"97.6532","MEAN_MOTION_DDOT":"0.0000000000000","ARG_OF_PERICENTER":"5.4523","GP_ID":"223254903","FILE":"3750956","COUNTRY_CODE":"US","LAUNCH_DATE":"2022-07-11","SEMIMAJOR_AXIS":"6941.149","APOAPSIS":"565.109"},{"ELEMENT_SET_NO":"999","TLE_LINE1":"1 53083U 22077AS  23016.75381187  .00002028  00000-0  16236-3 0  9992","MEAN_MOTION_DOT":"0.00002028","TIME_SYSTEM":"UTC","OBJECT_TYPE":"PAYLOAD","DECAY_DATE":null,"BSTAR":"0.00016236000000","CLASSIFICATION_TYPE":"U","REV_AT_EPOCH":"2869","ECCENTRICITY":"0.00001520","OBJECT_ID":"2022-077AS","PERIAPSIS":"562.873","EPOCH":"2023-01-16T18:05:29.345568","MEAN_ANOMALY":"325.6936","OBJECT_NAME":"STARLINK-4251","SITE":"AFWTR","RCS_SIZE":"LARGE","MEAN_MOTION":"15.01270697","NORAD_CAT_ID":"53083","REF_FRAME":"TEME","CENTER_NAME":"EARTH","EPHEMERIS_TYPE":"0","MEAN_ELEMENT_THEORY":"SGP4","RA_OF_ASC_NODE":"199.9963","PERIOD":"95.919","TLE_LINE2":"2 53083  97.6549 199.9963 0000152  34.4298 325.6936 15.01270697 28692","ARG_OF_PERICENTER":"34.4298","MEAN_MOTION_DDOT":"0.0000000000000","INCLINATION":"97.6549","GP_ID":"223255623","FILE":"3750956","COUNTRY_CODE":"US","LAUNCH_DATE":"2022-07-11","SEMIMAJOR_AXIS":"6941.114","APOAPSIS":"563.084"},{"PERIOD":"95.920","RA_OF_ASC_NODE":"200.0889","MEAN_ELEMENT_THEORY":"SGP4","ARG_OF_PERICENTER":"6.2084","TLE_LINE2":"2 53084  97.6529 200.0889 0001919   6.2084 353.9164 15.01255513 28703","MEAN_MOTION_DDOT":"0.0000000000000","INCLINATION":"97.6529","LAUNCH_DATE":"2022-07-11","COUNTRY_CODE":"US","FILE":"3750956","GP_ID":"223253934","APOAPSIS":"564.358","SEMIMAJOR_AXIS":"6941.161","RCS_SIZE":"LARGE","SITE":"AFWTR","NORAD_CAT_ID":"53084","MEAN_MOTION":"15.01255513","CENTER_NAME":"EARTH","REF_FRAME":"TEME","EPHEMERIS_TYPE":"0","CLASSIFICATION_TYPE":"U","ECCENTRICITY":"0.00019190","REV_AT_EPOCH":"2870","OBJECT_ID":"2022-077AT","PERIAPSIS":"561.694","OBJECT_NAME":"STARLINK-4319","MEAN_ANOMALY":"353.9164","EPOCH":"2023-01-16T19:57:28.708128","TLE_LINE1":"1 53084U 22077AT  23016.83158227 -.00000809  00000-0 -58393-4 0  9997","MEAN_MOTION_DOT":"-0.00000809","ELEMENT_SET_NO":"999","DECAY_DATE":null,"OBJECT_TYPE":"PAYLOAD","TIME_SYSTEM":"UTC","BSTAR":"-0.00005839300000"},{"APOAPSIS":"564.482","SEMIMAJOR_AXIS":"6941.120","LAUNCH_DATE":"2022-07-11","COUNTRY_CODE":"US","GP_ID":"223254176","FILE":"3750956","MEAN_MOTION_DDOT":"0.0000000000000","TLE_LINE2":"2 53085  97.6519 200.0840 0002157 353.6229   6.4967 15.01268780 28706","INCLINATION":"97.6519","ARG_OF_PERICENTER":"353.6229","PERIOD":"95.919","RA_OF_ASC_NODE":"200.0840","MEAN_ELEMENT_THEORY":"SGP4","EPHEMERIS_TYPE":"0","CENTER_NAME":"EARTH","REF_FRAME":"TEME","NORAD_CAT_ID":"53085","MEAN_MOTION":"15.01268780","RCS_SIZE":"LARGE","SITE":"AFWTR","OBJECT_NAME":"STARLINK-4324","EPOCH":"2023-01-16T19:52:07.866912","MEAN_ANOMALY":"6.4967","PERIAPSIS":"561.488","OBJECT_ID":"2022-077AU","ECCENTRICITY":"0.00021570","REV_AT_EPOCH":"2870","CLASSIFICATION_TYPE":"U","BSTAR":"0.00005785300000","DECAY_DATE":null,"OBJECT_TYPE":"PAYLOAD","TIME_SYSTEM":"UTC","TLE_LINE1":"1 53085U 22077AU  23016.82786883  .00000684  00000-0  57853-4 0  9991","MEAN_MOTION_DOT":"0.00000684","ELEMENT_SET_NO":"999"},{"COUNTRY_CODE":"US","GP_ID":"223255382","FILE":"3750956","LAUNCH_DATE":"2022-07-11","APOAPSIS":"564.244","SEMIMAJOR_AXIS":"6941.113","RA_OF_ASC_NODE":"200.0830","MEAN_ELEMENT_THEORY":"SGP4","PERIOD":"95.919","MEAN_MOTION_DDOT":"0.0000000000000","TLE_LINE2":"2 53086  97.6497 200.0830 0001825   6.5087 353.6161 15.01271136 28700","ARG_OF_PERICENTER":"6.5087","INCLINATION":"97.6497","CENTER_NAME":"EARTH","REF_FRAME":"TEME","EPHEMERIS_TYPE":"0","SITE":"AFWTR","RCS_SIZE":"LARGE","MEAN_MOTION":"15.01271136","NORAD_CAT_ID":"53086","OBJECT_ID":"2022-077AV","PERIAPSIS":"561.711","OBJECT_NAME":"STARLINK-4318","MEAN_ANOMALY":"353.6161","EPOCH":"2023-01-16T19:54:48.152736","CLASSIFICATION_TYPE":"U","ECCENTRICITY":"0.00018250","REV_AT_EPOCH":"2870","TIME_SYSTEM":"UTC","DECAY_DATE":null,"OBJECT_TYPE":"PAYLOAD","BSTAR":"0.00032668000000","TLE_LINE1":"1 53086U 22077AV  23016.82972399  .00004141  00000-0  32668-3 0  9999","MEAN_MOTION_DOT":"0.00004141","ELEMENT_SET_NO":"999"},{"REF_FRAME":"TEME","CENTER_NAME":"EARTH","EPHEMERIS_TYPE":"0","RCS_SIZE":"LARGE","SITE":"AFWTR","NORAD_CAT_ID":"53087","MEAN_MOTION":"15.01261244","LAUNCH_DATE":"2022-07-11","GP_ID":"223255145","FILE":"3750956","COUNTRY_CODE":"US","SEMIMAJOR_AXIS":"6941.143","APOAPSIS":"563.502","PERIOD":"95.919","MEAN_ELEMENT_THEORY":"SGP4","RA_OF_ASC_NODE":"200.0683","ARG_OF_PERICENTER":"82.1813","TLE_LINE2":"2 53087  97.6540 200.0683 0000711  82.1813 277.9491 15.01261244 28709","MEAN_MOTION_DDOT":"0.0000000000000","INCLINATION":"97.6540","OBJECT_TYPE":"PAYLOAD","DECAY_DATE":null,"TIME_SYSTEM":"UTC","BSTAR":"-0.00002478500000","ELEMENT_SET_NO":"999","MEAN_MOTION_DOT":"-0.00000377","TLE_LINE1":"1 53087U 22077AW  23016.82441973 -.00000377  00000-0 -24785-4 0  9990","OBJECT_ID":"2022-077AW","PERIAPSIS":"562.514","EPOCH":"2023-01-16T19:47:09.864672","MEAN_ANOMALY":"277.9491","OBJECT_NAME":"STARLINK-4329","CLASSIFICATION_TYPE":"U","ECCENTRICITY":"0.00007110","REV_AT_EPOCH":"2870"},{"OBJECT_ID":"2022-077AX","PERIAPSIS":"562.326","OBJECT_NAME":"STARLINK-4333","EPOCH":"2023-01-16T19:49:28.216992","MEAN_ANOMALY":"340.8996","CLASSIFICATION_TYPE":"U","ECCENTRICITY":"0.00009560","REV_AT_EPOCH":"2870","TIME_SYSTEM":"UTC","OBJECT_TYPE":"PAYLOAD","DECAY_DATE":null,"BSTAR":"0.00019073000000","MEAN_MOTION_DOT":"0.00002392","TLE_LINE1":"1 53088U 22077AX  23016.82602103  .00002392  00000-0  19073-3 0  9995","ELEMENT_SET_NO":"999","COUNTRY_CODE":"US","FILE":"3750956","GP_ID":"223254424","LAUNCH_DATE":"2022-07-11","APOAPSIS":"563.653","SEMIMAJOR_AXIS":"6941.124","RA_OF_ASC_NODE":"200.0817","MEAN_ELEMENT_THEORY":"SGP4","PERIOD":"95.919","MEAN_MOTION_DDOT":"0.0000000000000","TLE_LINE2":"2 53088  97.6499 200.0817 0000956  19.2264 340.8996 15.01267290 28701","INCLINATION":"97.6499","ARG_OF_PERICENTER":"19.2264","CENTER_NAME":"EARTH","REF_FRAME":"TEME","EPHEMERIS_TYPE":"0","SITE":"AFWTR","RCS_SIZE":"LARGE","MEAN_MOTION":"15.01267290","NORAD_CAT_ID":"53088"},{"EPHEMERIS_TYPE":"0","REF_FRAME":"TEME","CENTER_NAME":"EARTH","NORAD_CAT_ID":"53132","MEAN_MOTION":"15.08819144","RCS_SIZE":"LARGE","SITE":"AFETR","SEMIMAJOR_AXIS":"6917.944","APOAPSIS":"541.128","LAUNCH_DATE":"2022-07-17","GP_ID":"223254179","FILE":"3750956","COUNTRY_CODE":"US","TLE_LINE2":"2 53132  53.2134 286.9447 0001907  69.2510 290.8687 15.08819144 27936","INCLINATION":"53.2134","MEAN_MOTION_DDOT":"0.0000000000000","ARG_OF_PERICENTER":"69.2510","PERIOD":"95.439","MEAN_ELEMENT_THEORY":"SGP4","RA_OF_ASC_NODE":"286.9447","BSTAR":"-0.00024376000000","DECAY_DATE":null,"OBJECT_TYPE":"PAYLOAD","TIME_SYSTEM":"UTC","ELEMENT_SET_NO":"999","TLE_LINE1":"1 53132U 22083A   23016.85934524 -.00004163  00000-0 -24376-3 0  9992","MEAN_MOTION_DOT":"-0.00004163","EPOCH":"2023-01-16T20:37:27.428736","MEAN_ANOMALY":"290.8687","OBJECT_NAME":"STARLINK-4063","PERIAPSIS":"538.490","OBJECT_ID":"2022-083A","ECCENTRICITY":"0.00019070","REV_AT_EPOCH":"2793","CLASSIFICATION_TYPE":"U"}];
